ONEWEB-0418             
1 50493U 21132AA  25299.94406949  .00000096  00000+0  21025-3 0  9999
2 50493  87.9230  21.7735 0001681  85.3003 274.8321 13.18685491190926
ONEWEB-0419             
1 50494U 21132AB  25299.73471628  .00000049  00000+0  90840-4 0  9993
2 50494  87.9228  21.8148 0001964  92.9852 267.1505 13.18685544190819
ONEWEB-0420             
1 50495U 21132AC  25299.92770984  .00000119  00000+0  27007-3 0  9994
2 50495  87.9230  21.7878 0001961 111.2340 248.9001 13.18686932190838
ONEWEB-0421             
1 50496U 21132AD  25299.92110639  .00000080  00000+0  16967-3 0  9990
2 50496  87.9227  21.7827 0001507 106.9023 253.2275 13.18685370190875
ONEWEB-0424             
1 50497U 21132AE  25299.95739905  .00000094  00000+0  20550-3 0  9995
2 50497  87.9230  21.7711 0002116  94.1252 266.0122 13.18685008190906
ONEWEB-0426             
1 50498U 21132AF  25299.76605759 -.00000006  00000+0 -46960-4 0  9993
2 50498  87.9229  21.7999 0001138  94.6909 265.4353 13.18686340190820
ONEWEB-0427             
1 50499U 21132AG  25299.95573679  .00000104  00000+0  22991-3 0  9994
2 50499  87.9224  21.7512 0001753  94.2036 265.9297 13.18685658190875
ONEWEB-0429             
1 50500U 21132AH  25299.94255406  .00000084  00000+0  17969-3 0  9997
2 50500  87.9231  21.7850 0001907 104.4711 255.6633 13.18686176190849
ONEWEB-0430             
1 50501U 21132AJ  25299.77925495  .00000021  00000+0  19351-4 0  9990
2 50501  87.9231  21.8119 0002069 100.7513 259.3853 13.18685921190862
ONEWEB-0432             
1 50502U 21132AK  25299.73487702  .00000025  00000+0  31155-4 0  9991
2 50502  87.9223  21.7954 0002173  76.6596 283.4779 13.18671109190811
ONEWEB-0440             
1 50503U 21132AL  25299.95079964  .00000172  00000+0  40376-3 0  9990
2 50503  87.9231  21.7685 0001651 114.0528 246.0777 13.18685671190838
ONEWEB-0450             
1 50504U 21132AM  25299.94431900 -.00001032  00000+0 -26512-2 0  9995
2 50504  87.9230  21.7934 0002072 106.6857 253.4503 13.18690254190860
ONEWEB-0410             
1 51622U 22012A   25299.86543747  .00000035  00000+0  56744-4 0  9991
2 51622  87.9127  52.2364 0001224  45.1509 314.9721 13.17649927182970
ONEWEB-0411             
1 51623U 22012B   25299.89355022 -.00000593  00000+0 -17345-2 0  9995
2 51623  87.8770  82.7741 0002150  95.3461 264.7912 13.10373882178734
ONEWEB-0415             
1 51624U 22012C   25299.89023060 -.00000562  00000+0 -16460-2 0  9993
2 51624  87.8768  82.7766 0001865  94.4769 265.6572 13.10373325178736
ONEWEB-0416             
1 51625U 22012D   25299.90185360 -.00000363  00000+0 -10775-2 0  9990
2 51625  87.8774  82.7952 0001594  92.9210 267.2099 13.10375584178779
ONEWEB-0422             
1 51626U 22012E   25299.87556272  .00000026  00000+0  33192-4 0  9995
2 51626  87.9123  52.2393 0001943 122.3483 237.7837 13.17649164183085
