[{"OBJECT_NAME":"ONEWEB-0418","OBJECT_ID":"2021-132AA","EPOCH":"2025-10-26T22:39:27.603936","MEAN_MOTION":13.18685491,"ECCENTRICITY":0.0001681,"INCLINATION":87.923,"RA_OF_ASC_NODE":21.7735,"ARG_OF_PERICENTER":85.3003,"MEAN_ANOMALY":274.8321,"EPHEMERIS_TYPE":0,"CLASSIFICATION_TYPE":"U","NORAD_CAT_ID":50493,"ELEMENT_SET_NO":999,"REV_AT_EPOCH":19092,"BSTAR":0.0002102494,"MEAN_MOTION_DOT":9.6e-7,"MEAN_MOTION_DDOT":0},{"OBJECT_NAME":"ONEWEB-0419","OBJECT_ID":"2021-132AB","EPOCH":"2025-10-26T17:37:59.486592","MEAN_MOTION":13.18685544,"ECCENTRICITY":0.00019642,"INCLINATION":87.9228,"RA_OF_ASC_NODE":21.8148,"ARG_OF_PERICENTER":92.9852,"MEAN_ANOMALY":267.1505,"EPHEMERIS_TYPE":0,"CLASSIFICATION_TYPE":"U","NORAD_CAT_ID":50494,"ELEMENT_SET_NO":999,"REV_AT_EPOCH":19081,"BSTAR":9.0839735e-5,"MEAN_MOTION_DOT":4.9e-7,"MEAN_MOTION_DDOT":0},{"OBJECT_NAME":"ONEWEB-0420","OBJECT_ID":"2021-132AC","EPOCH":"2025-10-26T22:15:54.130176","MEAN_MOTION":13.18686932,"ECCENTRICITY":0.00019618,"INCLINATION":87.923,"RA_OF_ASC_NODE":21.7878,"ARG_OF_PERICENTER":111.234,"MEAN_ANOMALY":248.9001,"EPHEMERIS_TYPE":0,"CLASSIFICATION_TYPE":"U","NORAD_CAT_ID":50495,"ELEMENT_SET_NO":999,"REV_AT_EPOCH":19083,"BSTAR":0.00027006654,"MEAN_MOTION_DOT":1.19e-6,"MEAN_MOTION_DDOT":0},{"OBJECT_NAME":"ONEWEB-0421","OBJECT_ID":"2021-132AD","EPOCH":"2025-10-26T22:06:23.592096","MEAN_MOTION":13.1868537,"ECCENTRICITY":0.00015077,"INCLINATION":87.9227,"RA_OF_ASC_NODE":21.7827,"ARG_OF_PERICENTER":106.9023,"MEAN_ANOMALY":253.2275,"EPHEMERIS_TYPE":0,"CLASSIFICATION_TYPE":"U","NORAD_CAT_ID":50496,"ELEMENT_SET_NO":999,"REV_AT_EPOCH":19087,"BSTAR":0.00016966687,"MEAN_MOTION_DOT":8.0e-7,"MEAN_MOTION_DDOT":0},{"OBJECT_NAME":"ONEWEB-0424","OBJECT_ID":"2021-132AE","EPOCH":"2025-10-26T22:58:39.277920","MEAN_MOTION":13.18685008,"ECCENTRICITY":0.00021162,"INCLINATION":87.923,"RA_OF_ASC_NODE":21.7711,"ARG_OF_PERICENTER":94.1252,"MEAN_ANOMALY":266.0122,"EPHEMERIS_TYPE":0,"CLASSIFICATION_TYPE":"U","NORAD_CAT_ID":50497,"ELEMENT_SET_NO":999,"REV_AT_EPOCH":19090,"BSTAR":0.00020550375,"MEAN_MOTION_DOT":9.4e-7,"MEAN_MOTION_DDOT":0},{"OBJECT_NAME":"ONEWEB-0426","OBJECT_ID":"2021-132AF","EPOCH":"2025-10-26T18:23:07.375776","MEAN_MOTION":13.1868634,"ECCENTRICITY":0.00011385,"INCLINATION":87.9229,"RA_OF_ASC_NODE":21.7999,"ARG_OF_PERICENTER":94.6909,"MEAN_ANOMALY":265.4353,"EPHEMERIS_TYPE":0,"CLASSIFICATION_TYPE":"U","NORAD_CAT_ID":50498,"ELEMENT_SET_NO":999,"REV_AT_EPOCH":19082,"BSTAR":-4.6960435e-5,"MEAN_MOTION_DOT":-6.0e-8,"MEAN_MOTION_DDOT":0},{"OBJECT_NAME":"ONEWEB-0427","OBJECT_ID":"2021-132AG","EPOCH":"2025-10-26T22:56:15.658656","MEAN_MOTION":13.18685658,"ECCENTRICITY":0.00017536,"INCLINATION":87.9224,"RA_OF_ASC_NODE":21.7512,"ARG_OF_PERICENTER":94.2036,"MEAN_ANOMALY":265.9297,"EPHEMERIS_TYPE":0,"CLASSIFICATION_TYPE":"U","NORAD_CAT_ID":50499,"ELEMENT_SET_NO":999,"REV_AT_EPOCH":19087,"BSTAR":0.00022990548,"MEAN_MOTION_DOT":1.04e-6,"MEAN_MOTION_DDOT":0},{"OBJECT_NAME":"ONEWEB-0429","OBJECT_ID":"2021-132AH","EPOCH":"2025-10-26T22:37:16.670784","MEAN_MOTION":13.18686176,"ECCENTRICITY":0.00019074,"INCLINATION":87.9231,"RA_OF_ASC_NODE":21.785,"ARG_OF_PERICENTER":104.4711,"MEAN_ANOMALY":255.6633,"EPHEMERIS_TYPE":0,"CLASSIFICATION_TYPE":"U","NORAD_CAT_ID":50500,"ELEMENT_SET_NO":999,"REV_AT_EPOCH":19084,"BSTAR":0.00017969116,"MEAN_MOTION_DOT":8.4e-7,"MEAN_MOTION_DDOT":0},{"OBJECT_NAME":"ONEWEB-0430","OBJECT_ID":"2021-132AJ","EPOCH":"2025-10-26T18:42:07.627680","MEAN_MOTION":13.18685921,"ECCENTRICITY":0.00020695,"INCLINATION":87.9231,"RA_OF_ASC_NODE":21.8119,"ARG_OF_PERICENTER":100.7513,"MEAN_ANOMALY":259.3853,"EPHEMERIS_TYPE":0,"CLASSIFICATION_TYPE":"U","NORAD_CAT_ID":50501,"ELEMENT_SET_NO":999,"REV_AT_EPOCH":19086,"BSTAR":1.9351031e-5,"MEAN_MOTION_DOT":2.1e-7,"MEAN_MOTION_DDOT":0},{"OBJECT_NAME":"ONEWEB-0432","OBJECT_ID":"2021-132AK","EPOCH":"2025-10-26T17:38:13.374528","MEAN_MOTION":13.18671109,"ECCENTRICITY":0.00021738,"INCLINATION":87.9223,"RA_OF_ASC_NODE":21.7954,"ARG_OF_PERICENTER":76.6596,"MEAN_ANOMALY":283.4779,"EPHEMERIS_TYPE":0,"CLASSIFICATION_TYPE":"U","NORAD_CAT_ID":50502,"ELEMENT_SET_NO":999,"REV_AT_EPOCH":19081,"BSTAR":3.115475e-5,"MEAN_MOTION_DOT":2.5e-7,"MEAN_MOTION_DDOT":0},{"OBJECT_NAME":"ONEWEB-0440","OBJECT_ID":"2021-132AL","EPOCH":"2025-10-26T22:49:09.088896","MEAN_MOTION":13.18685671,"ECCENTRICITY":0.00016511,"INCLINATION":87.9231,"RA_OF_ASC_NODE":21.7685,"ARG_OF_PERICENTER":114.0528,"MEAN_ANOMALY":246.0777,"EPHEMERIS_TYPE":0,"CLASSIFICATION_TYPE":"U","NORAD_CAT_ID":50503,"ELEMENT_SET_NO":999,"REV_AT_EPOCH":19083,"BSTAR":0.00040376373,"MEAN_MOTION_DOT":1.72e-6,"MEAN_MOTION_DDOT":0},{"OBJECT_NAME":"ONEWEB-0450","OBJECT_ID":"2021-132AM","EPOCH":"2025-10-26T22:39:49.161600","MEAN_MOTION":13.18690254,"ECCENTRICITY":0.00020727,"INCLINATION":87.923,"RA_OF_ASC_NODE":21.7934,"ARG_OF_PERICENTER":106.6857,"MEAN_ANOMALY":253.4503,"EPHEMERIS_TYPE":0,"CLASSIFICATION_TYPE":"U","NORAD_CAT_ID":50504,"ELEMENT_SET_NO":999,"REV_AT_EPOCH":19086,"BSTAR":-0.0026511631,"MEAN_MOTION_DOT":-1.032e-5,"MEAN_MOTION_DDOT":0},{"OBJECT_NAME":"ONEWEB-0410","OBJECT_ID":"2022-012A","EPOCH":"2025-10-26T20:46:13.797408","MEAN_MOTION":13.17649927,"ECCENTRICITY":0.00012246,"INCLINATION":87.9127,"RA_OF_ASC_NODE":52.2364,"ARG_OF_PERICENTER":45.1509,"MEAN_ANOMALY":314.9721,"EPHEMERIS_TYPE":0,"CLASSIFICATION_TYPE":"U","NORAD_CAT_ID":51622,"ELEMENT_SET_NO":999,"REV_AT_EPOCH":18297,"BSTAR":5.6744337e-5,"MEAN_MOTION_DOT":3.5e-7,"MEAN_MOTION_DDOT":0},{"OBJECT_NAME":"ONEWEB-0411","OBJECT_ID":"2022-012B","EPOCH":"2025-10-26T21:26:42.739008","MEAN_MOTION":13.10373882,"ECCENTRICITY":0.000215,"INCLINATION":87.877,"RA_OF_ASC_NODE":82.7741,"ARG_OF_PERICENTER":95.3461,"MEAN_ANOMALY":264.7912,"EPHEMERIS_TYPE":0,"CLASSIFICATION_TYPE":"U","NORAD_CAT_ID":51623,"ELEMENT_SET_NO":999,"REV_AT_EPOCH":17873,"BSTAR":-0.0017345185,"MEAN_MOTION_DOT":-5.93e-6,"MEAN_MOTION_DDOT":0},{"OBJECT_NAME":"ONEWEB-0415","OBJECT_ID":"2022-012C","EPOCH":"2025-10-26T21:21:55.923840","MEAN_MOTION":13.10373325,"ECCENTRICITY":0.0001865,"INCLINATION":87.8768,"RA_OF_ASC_NODE":82.7766,"ARG_OF_PERICENTER":94.4769,"MEAN_ANOMALY":265.6572,"EPHEMERIS_TYPE":0,"CLASSIFICATION_TYPE":"U","NORAD_CAT_ID":51624,"ELEMENT_SET_NO":999,"REV_AT_EPOCH":17873,"BSTAR":-0.001646032,"MEAN_MOTION_DOT":-5.62e-6,"MEAN_MOTION_DDOT":0},{"OBJECT_NAME":"ONEWEB-0416","OBJECT_ID":"2022-012D","EPOCH":"2025-10-26T21:38:40.151040","MEAN_MOTION":13.10375584,"ECCENTRICITY":0.00015941,"INCLINATION":87.8774,"RA_OF_ASC_NODE":82.7952,"ARG_OF_PERICENTER":92.921,"MEAN_ANOMALY":267.2099,"EPHEMERIS_TYPE":0,"CLASSIFICATION_TYPE":"U","NORAD_CAT_ID":51625,"ELEMENT_SET_NO":999,"REV_AT_EPOCH":17877,"BSTAR":-0.0010775336,"MEAN_MOTION_DOT":-3.63e-6,"MEAN_MOTION_DDOT":0},{"OBJECT_NAME":"ONEWEB-0422","OBJECT_ID":"2022-012E","EPOCH":"2025-10-26T21:00:48.619008","MEAN_MOTION":13.17649164,"ECCENTRICITY":0.0001943,"INCLINATION":87.9123,"RA_OF_ASC_NODE":52.2393,"ARG_OF_PERICENTER":122.3483,"MEAN_ANOMALY":237.7837,"EPHEMERIS_TYPE":0,"CLASSIFICATION_TYPE":"U","NORAD_CAT_ID":51626,"ELEMENT_SET_NO":999,"REV_AT_EPOCH":18308,"BSTAR":3.3192417e-5,"MEAN_MOTION_DOT":2.6e-7,"MEAN_MOTION_DDOT":0}]
